EUTELSAT 7A             
1 28187U 04008A   25279.16777252  .00000109  00000+0  00000+0 0  9998
2 28187   5.1802  75.0227 0001175 152.1074  69.1775  1.00273650 78803
EUTELSAT 174A           
1 28924U 05052A   25279.13100249  .00000015  00000+0  00000+0 0  9996
2 28924   3.5705  79.6624 0006291 117.5091  39.0527  1.00271230 49783
EUTELSAT HOTBIRD 13B    
1 29270U 06032A   25279.14437521  .00000159  00000+0  00000+0 0  9996
2 29270   0.9993  84.9892 0003856 103.6173 271.5277  1.00271124 44765
EUTELSAT HOTBIRD 13C    
1 33459U 08065A   25279.13531666 -.00000096  00000+0  00000+0 0  9993
2 33459   2.2914  82.1834 0005437 135.5678 193.5405  1.00271563 44790
EUTELSAT 36B            
1 36101U 09065A   25279.14775522  .00000000  00000+0  00000+0 0  9997
2 36101   0.0268  24.3808 0006173 179.5746 274.7804  1.00271992 58163
EUTELSAT KA-SAT 9A      
1 37258U 10069A   25279.06823637  .00000064  00000+0  00000+0 0  9999
2 37258   0.0580 322.8200 0002805 201.8326 243.9316  1.00271846 41455
EUTELSAT 7 WEST A       
1 37816U 11051A   25279.13635666 -.00000058  00000+0  00000+0 0  9996
2 37816   0.0663  16.3448 0006510 179.2586 221.2500  1.00271503 51331
EUTELSAT 16A            
1 37836U 11057A   25279.14090883  .00000106  00000+0  00000+0 0  9994
2 37836   0.0667  14.9799 0005408 182.2165 244.5981  1.00273955  4783
